start=new Date('2023-06-06T00:00:00.000Z').valueOf();
sats=[{"OBJECT_TYPE":"PAYLOAD","FILE":"3925345","EPHEMERIS_TYPE":"0","REF_FRAME":"TEME","MEAN_ELEMENT_THEORY":"SGP4","BSTAR":"0.00040670000000","PERIAPSIS":"546.324","REV_AT_EPOCH":"14559","SITE":"AFETR","OBJECT_NAME":"STARLINK-1816","SEMIMAJOR_AXIS":"6925.346","MEAN_MOTION_DDOT":"0.0000000000000","MEAN_ANOMALY":"239.7016","OBJECT_ID":"2020-073AW","NORAD_CAT_ID":"46714","PERIOD":"95.592","COUNTRY_CODE":"US","APOAPSIS":"548.098","TLE_LINE1":"1 46714U 20073AW  23156.12553638  .00005782  00000-0  40670-3 0  9996","ECCENTRICITY":"0.00012810","CLASSIFICATION_TYPE":"U","LAUNCH_DATE":"2020-10-18","RCS_SIZE":"LARGE","INCLINATION":"53.0536","CENTER_NAME":"EARTH","MEAN_MOTION_DOT":"0.00005782","RA_OF_ASC_NODE":"89.2380","GP_ID":"233226391","ELEMENT_SET_NO":"999","DECAY_DATE":null,"TIME_SYSTEM":"UTC","ARG_OF_PERICENTER":"120.4099","MEAN_MOTION":"15.06400747","EPOCH":"2023-06-05T03:00:46.343232","TLE_LINE2":"2 46714  53.0536  89.2380 0001281 120.4099 239.7016 15.06400747145599"},{"TLE_LINE2":"2 46715  53.0550  87.4678 0001516  82.9708 277.1454 15.06413436145171","ARG_OF_PERICENTER":"82.9708","EPOCH":"2023-06-05T12:28:42.371904","MEAN_MOTION":"15.06413436","DECAY_DATE":null,"TIME_SYSTEM":"UTC","ELEMENT_SET_NO":"999","GP_ID":"233253836","RA_OF_ASC_NODE":"87.4678","MEAN_MOTION_DOT":"0.00010909","INCLINATION":"53.0550","CENTER_NAME":"EARTH","RCS_SIZE":"LARGE","CLASSIFICATION_TYPE":"U","LAUNCH_DATE":"2020-10-18","TLE_LINE1":"1 46715U 20073AX  23156.51993486  .00010909  00000-0  74983-3 0  9990","ECCENTRICITY":"0.00015160","APOAPSIS":"548.222","PERIOD":"95.591","COUNTRY_CODE":"US","NORAD_CAT_ID":"46715","OBJECT_ID":"2020-073AX","SEMIMAJOR_AXIS":"6925.307","MEAN_MOTION_DDOT":"0.0000000000000","MEAN_ANOMALY":"277.1454","SITE":"AFETR","OBJECT_NAME":"STARLINK-1817","PERIAPSIS":"546.123","REV_AT_EPOCH":"14517","BSTAR":"0.00074983000000","REF_FRAME":"TEME","MEAN_ELEMENT_THEORY":"SGP4","OBJECT_TYPE":"PAYLOAD","FILE":"3925691","EPHEMERIS_TYPE":"0"},{"SITE":"AFETR","OBJECT_NAME":"STARLINK-1818","MEAN_MOTION_DDOT":"0.0000000000000","SEMIMAJOR_AXIS":"6925.332","MEAN_ANOMALY":"272.2114","OBJECT_ID":"2020-073AY","NORAD_CAT_ID":"46716","FILE":"3925691","OBJECT_TYPE":"PAYLOAD","EPHEMERIS_TYPE":"0","REF_FRAME":"TEME","MEAN_ELEMENT_THEORY":"SGP4","BSTAR":"0.00044108000000","PERIAPSIS":"546.302","REV_AT_EPOCH":"14492","ECCENTRICITY":"0.00012920","TLE_LINE1":"1 46716U 20073AY  23156.26975138  .00006295  00000-0  44108-3 0  9996","PERIOD":"95.592","COUNTRY_CODE":"US","APOAPSIS":"548.092","CLASSIFICATION_TYPE":"U","LAUNCH_DATE":"2020-10-18","RCS_SIZE":"LARGE","CENTER_NAME":"EARTH","INCLINATION":"53.0545","MEAN_MOTION_DOT":"0.00006295","DECAY_DATE":null,"TIME_SYSTEM":"UTC","ARG_OF_PERICENTER":"87.9023","EPOCH":"2023-06-05T06:28:26.519232","MEAN_MOTION":"15.06405445","TLE_LINE2":"2 46716  53.0545 103.5881 0001292  87.9023 272.2114 15.06405445144920","RA_OF_ASC_NODE":"103.5881","GP_ID":"233254088","ELEMENT_SET_NO":"999"},{"PERIAPSIS":"546.277","REV_AT_EPOCH":"14517","BSTAR":"0.00090042000000","REF_FRAME":"TEME","MEAN_ELEMENT_THEORY":"SGP4","OBJECT_TYPE":"PAYLOAD","FILE":"3925691","EPHEMERIS_TYPE":"0","NORAD_CAT_ID":"46717","OBJECT_ID":"2020-073AZ","MEAN_MOTION_DDOT":"0.0000000000000","SEMIMAJOR_AXIS":"6925.345","MEAN_ANOMALY":"246.6993","SITE":"AFETR","OBJECT_NAME":"STARLINK-1820","APOAPSIS":"548.143","PERIOD":"95.592","COUNTRY_CODE":"US","ECCENTRICITY":"0.00013470","TLE_LINE1":"1 46717U 20073AZ  23156.53836573  .00013156  00000-0  90042-3 0  9998","MEAN_MOTION_DOT":"0.00013156","INCLINATION":"53.0539","CENTER_NAME":"EARTH","RCS_SIZE":"LARGE","CLASSIFICATION_TYPE":"U","LAUNCH_DATE":"2020-10-18","ELEMENT_SET_NO":"999","GP_ID":"233254838","RA_OF_ASC_NODE":"87.3815","TLE_LINE2":"2 46717  53.0539  87.3815 0001347 113.4138 246.6993 15.06401216145173","ARG_OF_PERICENTER":"113.4138","EPOCH":"2023-06-05T12:55:14.799072","MEAN_MOTION":"15.06401216","DECAY_DATE":null,"TIME_SYSTEM":"UTC"},{"APOAPSIS":"547.989","COUNTRY_CODE":"US","PERIOD":"95.592","ECCENTRICITY":"0.00011330","TLE_LINE1":"1 46718U 20073BA  23156.64476728  .00004362  00000-0  31153-3 0  9990","REV_AT_EPOCH":"14498","PERIAPSIS":"546.420","BSTAR":"0.00031153000000","MEAN_ELEMENT_THEORY":"SGP4","REF_FRAME":"TEME","EPHEMERIS_TYPE":"0","OBJECT_TYPE":"PAYLOAD","FILE":"3925751","NORAD_CAT_ID":"46718","OBJECT_ID":"2020-073BA","MEAN_ANOMALY":"255.5434","SEMIMAJOR_AXIS":"6925.340","MEAN_MOTION_DDOT":"0.0000000000000","OBJECT_NAME":"STARLINK-1821","SITE":"AFETR","ELEMENT_SET_NO":"999","GP_ID":"233282048","RA_OF_ASC_NODE":"101.8949","TLE_LINE2":"2 46718  53.0539 101.8949 0001133 104.5681 255.5434 15.06402865144989","EPOCH":"2023-06-05T15:28:27.892992","MEAN_MOTION":"15.06402865","ARG_OF_PERICENTER":"104.5681","DECAY_DATE":null,"TIME_SYSTEM":"UTC","MEAN_MOTION_DOT":"0.00004362","CENTER_NAME":"EARTH","INCLINATION":"53.0539","RCS_SIZE":"LARGE","LAUNCH_DATE":"2020-10-18","CLASSIFICATION_TYPE":"U"},{"NORAD_CAT_ID":"46719","OBJECT_ID":"2020-073BB","MEAN_ANOMALY":"275.5558","MEAN_MOTION_DDOT":"0.0000000000000","SEMIMAJOR_AXIS":"6925.229","OBJECT_NAME":"STARLINK-1822","SITE":"AFETR","PERIAPSIS":"546.213","REV_AT_EPOCH":"14551","BSTAR":"0.00149800000000","MEAN_ELEMENT_THEORY":"SGP4","REF_FRAME":"TEME","EPHEMERIS_TYPE":"0","OBJECT_TYPE":"PAYLOAD","FILE":"3925751","ECCENTRICITY":"0.00012710","TLE_LINE1":"1 46719U 20073BB  23156.89404748  .00022125  00000-0  14980-2 0  9996","APOAPSIS":"547.974","COUNTRY_CODE":"US","PERIOD":"95.590","MEAN_MOTION_DOT":"0.00022125","INCLINATION":"53.0551","CENTER_NAME":"EARTH","RCS_SIZE":"LARGE","LAUNCH_DATE":"2020-10-18","CLASSIFICATION_TYPE":"U","TLE_LINE2":"2 46719  53.0551  65.7860 0001271  84.5576 275.5558 15.06439120145510","MEAN_MOTION":"15.06439120","EPOCH":"2023-06-05T21:27:25.702272","ARG_OF_PERICENTER":"84.5576","DECAY_DATE":null,"TIME_SYSTEM":"UTC","ELEMENT_SET_NO":"999","GP_ID":"233282798","RA_OF_ASC_NODE":"65.7860"},{"RCS_SIZE":"LARGE","LAUNCH_DATE":"2020-10-18","CLASSIFICATION_TYPE":"U","MEAN_MOTION_DOT":"0.00000602","INCLINATION":"53.0545","CENTER_NAME":"EARTH","GP_ID":"233281047","RA_OF_ASC_NODE":"101.7844","ELEMENT_SET_NO":"999","MEAN_MOTION":"15.06391691","EPOCH":"2023-06-05T16:06:59.890464","ARG_OF_PERICENTER":"88.3637","DECAY_DATE":null,"TIME_SYSTEM":"UTC","TLE_LINE2":"2 46722  53.0545 101.7844 0001223  88.3637 271.7492 15.06391691144982","MEAN_ELEMENT_THEORY":"SGP4","REF_FRAME":"TEME","EPHEMERIS_TYPE":"0","FILE":"3925751","OBJECT_TYPE":"PAYLOAD","REV_AT_EPOCH":"14498","PERIAPSIS":"546.392","BSTAR":"0.00005930200000","MEAN_ANOMALY":"271.7492","MEAN_MOTION_DDOT":"0.0000000000000","SEMIMAJOR_AXIS":"6925.374","OBJECT_NAME":"STARLINK-1825","SITE":"AFETR","NORAD_CAT_ID":"46722","OBJECT_ID":"2020-073BE","COUNTRY_CODE":"US","PERIOD":"95.593","APOAPSIS":"548.086","TLE_LINE1":"1 46722U 20073BE  23156.67152651  .00000602  00000-0  59302-4 0  9994","ECCENTRICITY":"0.00012230"},{"CENTER_NAME":"EARTH","INCLINATION":"53.0550","MEAN_MOTION_DOT":"0.00020387","CLASSIFICATION_TYPE":"U","LAUNCH_DATE":"2020-10-18","RCS_SIZE":"LARGE","TLE_LINE2":"2 46723  53.0550  60.7767 0001159  88.3312 271.7809 15.06440654145588","TIME_SYSTEM":"UTC","DECAY_DATE":null,"ARG_OF_PERICENTER":"88.3312","EPOCH":"2023-06-05T21:30:45.089280","MEAN_MOTION":"15.06440654","ELEMENT_SET_NO":"999","RA_OF_ASC_NODE":"60.7767","GP_ID":"233281297","OBJECT_ID":"2020-073BF","NORAD_CAT_ID":"46723","SITE":"AFETR","OBJECT_NAME":"STARLINK-1826","SEMIMAJOR_AXIS":"6925.224","MEAN_MOTION_DDOT":"0.0000000000000","MEAN_ANOMALY":"271.7809","BSTAR":"0.00138210000000","REV_AT_EPOCH":"14558","PERIAPSIS":"546.286","FILE":"3925751","OBJECT_TYPE":"PAYLOAD","EPHEMERIS_TYPE":"0","REF_FRAME":"TEME","MEAN_ELEMENT_THEORY":"SGP4","ECCENTRICITY":"0.00011590","TLE_LINE1":"1 46723U 20073BF  23156.89635520  .00020387  00000-0  13821-2 0  9996","APOAPSIS":"547.892","PERIOD":"95.590","COUNTRY_CODE":"US"},{"PERIAPSIS":"546.304","REV_AT_EPOCH":"14501","BSTAR":"0.00028396000000","MEAN_ELEMENT_THEORY":"SGP4","REF_FRAME":"TEME","EPHEMERIS_TYPE":"0","OBJECT_TYPE":"PAYLOAD","FILE":"3925751","NORAD_CAT_ID":"46725","OBJECT_ID":"2020-073BH","MEAN_ANOMALY":"259.5687","SEMIMAJOR_AXIS":"6925.316","MEAN_MOTION_DDOT":"0.0000000000000","OBJECT_NAME":"STARLINK-1828","SITE":"AFETR","APOAPSIS":"548.059","COUNTRY_CODE":"US","PERIOD":"95.591","TLE_LINE1":"1 46725U 20073BH  23156.83368984  .00003952  00000-0  28396-3 0  9992","ECCENTRICITY":"0.00012670","MEAN_MOTION_DOT":"0.00003952","CENTER_NAME":"EARTH","INCLINATION":"53.0539","RCS_SIZE":"LARGE","LAUNCH_DATE":"2020-10-18","CLASSIFICATION_TYPE":"U","ELEMENT_SET_NO":"999","GP_ID":"233282548","RA_OF_ASC_NODE":"101.0548","TLE_LINE2":"2 46725  53.0539 101.0548 0001267 100.5445 259.5687 15.06410591145010","MEAN_MOTION":"15.06410591","EPOCH":"2023-06-05T20:00:30.802176","ARG_OF_PERICENTER":"100.5445","DECAY_DATE":null,"TIME_SYSTEM":"UTC"},{"MEAN_ANOMALY":"266.0604","MEAN_MOTION_DDOT":"0.0000000000000","SEMIMAJOR_AXIS":"6925.269","OBJECT_NAME":"STARLINK-1829","SITE":"AFETR","NORAD_CAT_ID":"46726","OBJECT_ID":"2020-073BJ","MEAN_ELEMENT_THEORY":"SGP4","REF_FRAME":"TEME","EPHEMERIS_TYPE":"0","OBJECT_TYPE":"PAYLOAD","FILE":"3925751","PERIAPSIS":"546.145","REV_AT_EPOCH":"14521","BSTAR":"0.00093534000000","TLE_LINE1":"1 46726U 20073BJ  23156.79174323  .00013687  00000-0  93534-3 0  9992","ECCENTRICITY":"0.00014280","COUNTRY_CODE":"US","PERIOD":"95.590","APOAPSIS":"548.123","RCS_SIZE":"LARGE","LAUNCH_DATE":"2020-10-18","CLASSIFICATION_TYPE":"U","MEAN_MOTION_DOT":"0.00013687","CENTER_NAME":"EARTH","INCLINATION":"53.0548","MEAN_MOTION":"15.06426027","EPOCH":"2023-06-05T19:00:06.615072","ARG_OF_PERICENTER":"94.0548","DECAY_DATE":null,"TIME_SYSTEM":"UTC","TLE_LINE2":"2 46726  53.0548  86.2350 0001428  94.0548 266.0604 15.06426027145211","GP_ID":"233282299","RA_OF_ASC_NODE":"86.2350","ELEMENT_SET_NO":"999"}];
